[{"OBJECT_NAME":"STARLINK-30588","OBJECT_ID":"2023-158M","EPOCH":"2026-03-09T06:01:30.936864","MEAN_MOTION":15.26786887,"ECCENTRICITY":0.00010332,"INCLINATION":43.0009,"RA_OF_ASC_NODE":29.4554,"ARG_OF_PERICENTER":282.9067,"MEAN_ANOMALY":77.1669,"EPHEMERIS_TYPE":0,"CLASSIFICATION_TYPE":"U","NORAD_CAT_ID":58062,"ELEMENT_SET_NO":999,"REV_AT_EPOCH":13350,"BSTAR":0.00017658437,"MEAN_MOTION_DOT":4.486e-5,"MEAN_MOTION_DDOT":0},{"OBJECT_NAME":"FLOCK 4G-8","OBJECT_ID":"2025-009E","EPOCH":"2026-03-09T17:22:17.546016","MEAN_MOTION":15.27623414,"ECCENTRICITY":0.00030503,"INCLINATION":97.4045,"RA_OF_ASC_NODE":151.2834,"ARG_OF_PERICENTER":315.2538,"MEAN_ANOMALY":44.8455,"EPHEMERIS_TYPE":0,"CLASSIFICATION_TYPE":"U","NORAD_CAT_ID":62613,"ELEMENT_SET_NO":999,"REV_AT_EPOCH":6372,"BSTAR":0.0005043806,"MEAN_MOTION_DOT":0.00013559,"MEAN_MOTION_DDOT":0}]
