STARLINK-30588          
1 58062U 23158M   26068.25105251  .00004486  00000+0  17658-3 0  9994
2 58062  43.0009  29.4554 0001033 282.9067  77.1669 15.26786887133505
FLOCK 4G-8              
1 62613U 25009E   26068.72381419  .00013559  00000+0  50438-3 0  9996
2 62613  97.4045 151.2834 0003050 315.2538  44.8455 15.27623414 63721
